NORAD_CAT_ID,OBJECT_NAME,OBJECT_TYPE,EPOCH,MEAN_MOTION,ECCENTRICITY,INCLINATION,RA_OF_ASC_NODE,ARG_OF_PERICENTER,MEAN_ANOMALY,BSTAR,MEAN_MOTION_DOT,MEAN_MOTION_DDOT,TLE_LINE0,TLE_LINE1,TLE_LINE2,SEMIMAJOR_AXIS,PERIOD,APOGEE,PERIGEE,DECAYED
55287.0,STARLINK-5341,PAYLOAD,2023-01-24 16:00:00,15.94516472,0.0039406999999999,69.9996,55.2019,163.4607,354.36,-0.0021755,-0.00890987,0.00025048,0 STARLINK-5341,1 55287U 23010U   23024.66667824 -.00890987  25048-3 -21755-2 0  9996,2 55287  69.9996  55.2019 0039407 163.4607 354.3600 15.94516472  1308,6667.799,90.31,315.94,263.388,0.0
55287.0,STARLINK-5341,PAYLOAD,2023-01-25 14:00:01,15.92886221,0.0030304999999999,69.9992,52.5324,165.4755,209.9288,-0.0025353,-0.00921096,0.00026193,0 STARLINK-5341,1 55287U 23010U   23025.58334491 -.00921096  26193-3 -25353-2 0  9995,2 55287  69.9992  52.5324 0030305 165.4755 209.9288 15.92886221  1304,6672.348000000001,90.402,314.433,273.992,0.0
55287.0,STARLINK-5341,PAYLOAD,2023-01-25 16:00:01,15.92724757,0.0029872,69.9994,52.2903,165.4937,327.6745,-0.0024879,-0.00895205,0.00024806,0 STARLINK-5341,1 55287U 23010U   23025.66668981 -.00895205  24806-3 -24879-2 0  9991,2 55287  69.9994  52.2903 0029872 165.4937 327.6745 15.92724757  1452,6672.799,90.411,314.597,274.731,0.0
55287.0,STARLINK-5341,PAYLOAD,2023-01-25 22:00:00,15.92272833,0.0027399,69.9998,51.5635,166.0301,319.8849,-0.0025434999999999,-0.0088762,0.00024306,0 STARLINK-5341,1 55287U 23010U   23025.91667824 -.00887620  24306-3 -25435-2 0  9990,2 55287  69.9998  51.5635 0027399 166.0301 319.8849 15.92272833  1309,6674.061,90.437,314.212,277.64,0.0
55287.0,STARLINK-5341,PAYLOAD,2023-01-26 00:00:00,15.92137598,0.0026912,69.9999,51.3212,166.4586,76.9661,-0.0026542,-0.00918321,0.0002585,0 STARLINK-5341,1 55287U 23010U   23026.00001157 -.00918321  25850-3 -26542-2 0  9990,2 55287  69.9999  51.3212 0026912 166.4586  76.9661 15.92137598  1512,6674.439,90.444,314.266,278.342,0.0
55287.0,STARLINK-5341,PAYLOAD,2023-01-26 10:00:00,15.91380582,0.0023466999999999,70.0003,50.1117,168.1321,302.1953,-0.0027198,-0.00897364,0.0002458,0 STARLINK-5341,1 55287U 23010U   23026.41667824 -.00897364  24580-3 -27198-2 0  9994,2 55287  70.0003  50.1117 0023467 168.1321 302.1953 15.91380582  1576,6676.556,90.487,314.088,282.753,0.0
55287.0,STARLINK-5341,PAYLOAD,2023-01-26 14:00:01,15.91091913,0.0021545,69.9995,49.6276,170.477,174.294,-0.0028477,-0.00921763,0.00025757,0 STARLINK-5341,1 55287U 23010U   23026.58334491 -.00921763  25757-3 -28477-2 0  9992,2 55287  69.9995  49.6276 0021545 170.4770 174.2940 15.91091913  1303,6677.363,90.504,313.615,284.842,0.0
55287.0,STARLINK-5341,PAYLOAD,2023-01-26 18:00:00,15.90790174,0.0020635,69.9999,49.1444,171.3722,47.6663,-0.0028748,-0.00914626,0.00025313,0 STARLINK-5341,1 55287U 23010U   23026.75001157 -.00914626  25313-3 -28748-2 0  9990,2 55287  69.9999  49.1444 0020635 171.3722  47.6663 15.90790174  1630,6678.206999999999,90.521,313.853,286.29200000000003,0.0
55287.0,STARLINK-5341,PAYLOAD,2023-01-27 02:00:01,15.90204689,0.0017565999999999,70.0003,48.1784,175.4645,151.565,-0.0030579,-0.00938989,0.00026422,0 STARLINK-5341,1 55287U 23010U   23027.08334491 -.00938989  26422-3 -30579-2 0  9992,2 55287  70.0003  48.1784 0017566 175.4645 151.5650 15.90204689  1680,6679.847,90.554,313.445,289.978,0.0
55287.0,STARLINK-5341,PAYLOAD,2023-01-27 08:00:01,15.89754034,0.0016134,70.0,47.4544,177.4914,140.0658,-0.0031265,-0.00936338,0.00026168,0 STARLINK-5341,1 55287U 23010U   23027.33334491 -.00936338  26168-3 -31265-2 0  9996,2 55287  70.0000  47.4544 0016134 177.4914 140.0658 15.89754034  1722,6681.109,90.58,313.753,292.195,0.0
55287.0,STARLINK-5341,PAYLOAD,2023-01-27 14:00:01,15.89299302,0.0013997,69.9994,46.7303,183.0242,124.6588,-0.0031666,-0.00924283,0.00025434,0 STARLINK-5341,1 55287U 23010U   23027.58334491 -.00924283  25434-3 -31666-2 0  9999,2 55287  69.9994  46.7303 0013997 183.0242 124.6588 15.89299302  1303,6682.383000000001,90.606,313.60200000000003,294.895,0.0
55287.0,STARLINK-5341,PAYLOAD,2023-01-27 16:00:00,15.89148454,0.001344,69.9996,46.49,184.6477,239.6528,-0.0031742,-0.00918926,0.00025125,0 STARLINK-5341,1 55287U 23010U   23027.66667824 -.00918926  25125-3 -31742-2 0  9996,2 55287  69.9996  46.4900 0013440 184.6477 239.6528 15.89148454  1778,6682.806,90.615,313.653,295.689,0.0
55287.0,STARLINK-5341,PAYLOAD,2023-01-27 22:00:00,15.88698671,0.0011539999999999,70.0001,45.7669,191.3477,222.5387,-0.0032473,-0.00917279,0.00024932,0 STARLINK-5341,1 55287U 23010U   23027.91667824 -.00917279  24932-3 -32473-2 0  9991,2 55287  70.0001  45.7669 0011540 191.3477 222.5387 15.88698671  1815,6684.066999999999,90.64,313.646,298.219,0.0
55287.0,STARLINK-5341,PAYLOAD,2023-01-28 14:00:01,15.87505101,0.000884,69.9993,43.8408,216.9466,47.1944,-0.0034712,-0.00843532,0.0,0 STARLINK-5341,1 55287U 23010U   23028.58334491 -.00843532  00000-0 -34712-2 0  9991,2 55287  69.9993  43.8408 0008840 216.9466  47.1944 15.87505101  1301,6687.417,90.708,315.194,303.371,0.0
55287.0,STARLINK-5341,PAYLOAD,2023-01-28 22:00:00,15.86908363,0.0008334,69.9999,42.8799,237.3514,130.8415,-0.0035945,-0.00847264,0.0,0 STARLINK-5341,1 55287U 23010U   23028.91667824 -.00847264  00000-0 -35945-2 0  9992,2 55287  69.9999  42.8799 0008334 237.3514 130.8415 15.86908363  1307,6689.094,90.742,316.533,305.384,0.0
55287.0,STARLINK-5341,PAYLOAD,2023-01-29 00:00:00,15.86747676,0.0008228,70.0002,42.64,240.7968,243.3,-0.0035217,-0.00825452,0.0,0 STARLINK-5341,1 55287U 23010U   23029.00001157 -.00825452  00000-0 -35217-2 0  9991,2 55287  70.0002  42.6400 0008228 240.7968 243.3000 15.86747676  1987,6689.545,90.752,316.914,305.906,0.0
55287.0,STARLINK-5341,PAYLOAD,2023-01-29 22:00:01,15.85093747,0.0008211,70.0,40.0006,269.0711,47.0488,-0.0037469,-0.00811389,0.0,0 STARLINK-5341,1 55287U 23010U   23029.91668981 -.00811389  00000-0 -37469-2 0  9990,2 55287  70.0000  40.0006 0008211 269.0711  47.0488 15.85093747  1308,6694.198,90.846,321.559,310.566,0.0
55287.0,STARLINK-5341,PAYLOAD,2023-01-30 00:00:00,15.84969468,0.0007607,70.0001,39.7613,270.0482,161.3587,-0.0039789,-0.00852089,0.0,0 STARLINK-5341,1 55287U 23010U   23030.00001157 -.00852089  00000-0 -39789-2 0  9997,2 55287  70.0001  39.7613 0007607 270.0482 161.3587 15.84969468  2147,6694.548,90.853,321.505,311.32,0.0
55287.0,STARLINK-5341,PAYLOAD,2023-01-30 14:00:01,15.83930519,0.0005447,69.9995,38.0856,272.366,245.3247,-0.0042434,-0.00861933,0.0,0 STARLINK-5341,1 55287U 23010U   23030.58334491 -.00861933  00000-0 -42434-2 0  9999,2 55287  69.9995  38.0856 0005447 272.3660 245.3247 15.83930519  1307,6697.475,90.913,322.988,315.692,0.0
55287.0,STARLINK-5341,PAYLOAD,2023-01-30 22:00:00,15.8331325,0.0004075,70.0,37.1298,278.2696,339.1779,-0.0042011,-0.00830781,0.0,0 STARLINK-5341,1 55287U 23010U   23030.91667824 -.00830781  00000-0 -42011-2 0  9993,2 55287  70.0000  37.1298 0004075 278.2696 339.1779 15.83313250  1306,6699.215,90.949,323.81,318.351,0.0
55287.0,STARLINK-5341,PAYLOAD,2023-01-31 02:00:01,15.8301823,0.0003675,70.0,36.6517,283.1873,203.864,-0.0042907,-0.00836018,0.0,0 STARLINK-5341,1 55287U 23010U   23031.08334491 -.00836018  00000-0 -42907-2 0  9996,2 55287  70.0000  36.6517 0003675 283.1873 203.8640 15.83018230  2317,6700.048,90.965,324.375,319.45,0.0
55287.0,STARLINK-5341,PAYLOAD,2023-01-31 14:00:01,15.82121029,0.0003492,69.9994,35.219,272.1816,182.612,-0.0044754,-0.00835871,0.0,0 STARLINK-5341,1 55287U 23010U   23031.58334491 -.00835871  00000-0 -44754-2 0  9999,2 55287  69.9994  35.2190 0003492 272.1816 182.6120 15.82121029  1305,6702.581,91.017,326.786,322.105,0.0
55287.0,STARLINK-5341,PAYLOAD,2023-01-31 22:00:00,15.8152371,0.0003484,69.9998,34.2657,272.6385,279.753,-0.0046109,-0.00837336,0.0,0 STARLINK-5341,1 55287U 23010U   23031.91667824 -.00837336  00000-0 -46109-2 0  9999,2 55287  69.9998  34.2657 0003484 272.6385 279.7530 15.81523710  2455,6704.268,91.051,328.469,323.797,0.0
55287.0,STARLINK-5341,PAYLOAD,2023-02-01 14:00:01,15.80335984,0.0003643,69.9994,32.3597,268.5954,116.8375,-0.0049376,-0.00847745,0.0,0 STARLINK-5341,1 55287U 23010U   23032.58334491 -.00847745  00000-0 -49376-2 0  9998,2 55287  69.9994  32.3597 0003643 268.5954 116.8375 15.80335984  1300,6707.627,91.12,331.935,327.048,0.0
55287.0,STARLINK-5341,PAYLOAD,2023-02-01 22:00:00,15.79729573,0.0003505,70.0002,31.4093,272.6022,208.2814,-0.0050067,-0.00836999,0.0,0 STARLINK-5341,1 55287U 23010U   23032.91667824 -.00836999  00000-0 -50067-2 0  9992,2 55287  70.0002  31.4093 0003505 272.6022 208.2814 15.79729573  2600,6709.343,91.155,333.56,328.857,0.0
55287.0,STARLINK-5341,PAYLOAD,2023-02-02 14:00:01,15.78535316,0.0003577,69.9993,29.5084,266.2498,43.3754,-0.0052939,-0.0083815,0.0,0 STARLINK-5341,1 55287U 23010U   23033.58334491 -.00838150  00000-0 -52939-2 0  9998,2 55287  69.9993  29.5084 0003577 266.2498  43.3754 15.78535316  1305,6712.727,91.224,336.993,332.191,0.0
55287.0,STARLINK-5341,PAYLOAD,2023-02-03 02:00:01,15.776534,0.0003615,69.9995,28.0852,258.8422,10.4497,-0.0056464,-0.00857251,0.0,0 STARLINK-5341,1 55287U 23010U   23034.08334491 -.00857251  00000-0 -56464-2 0  9994,2 55287  69.9995  28.0852 0003615 258.8422  10.4497 15.77653400  2798,6715.228,91.275,339.521,334.666,0.0
55287.0,STARLINK-5341,PAYLOAD,2023-02-03 14:00:01,15.7674453,0.0003492,69.9991,26.6643,265.1487,322.2109,-0.0057718,-0.00842827,0.0,0 STARLINK-5341,1 55287U 23010U   23034.58334491 -.00842827  00000-0 -57718-2 0  9995,2 55287  69.9991  26.6643 0003492 265.1487 322.2109 15.76744530  1305,6717.808,91.327,342.019,337.328,0.0
55287.0,STARLINK-5341,PAYLOAD,2023-02-03 22:00:00,15.76135864,0.0003611,70.0,25.719,268.5654,49.9425,-0.0058038,-0.00826586,0.0,0 STARLINK-5341,1 55287U 23010U   23034.91667824 -.00826586  00000-0 -58038-2 0  9991,2 55287  70.0000  25.7190 0003611 268.5654  49.9425 15.76135864  1300,6719.538,91.363,343.829,338.976,0.0
